{
    "links": {
        "self": "http://www.neowsapp.com/rest/v1/neo/3382711?api_key=iIulBulltgU6a56xZRHN4H3l9WmuAYTsLGpBGhQ2"
    },
    "id": "3382711",
    "neo_reference_id": "3382711",
    "name": "(2007 QA2)",
    "designation": "2007 QA2",
    "nasa_jpl_url": "http://ssd.jpl.nasa.gov/sbdb.cgi?sstr=3382711",
    "absolute_magnitude_h": 20.7,
    "estimated_diameter": {
        "kilometers": {
            "estimated_diameter_min": 0.1925550782,
            "estimated_diameter_max": 0.4305662442
        },
        "meters": {
            "estimated_diameter_min": 192.5550781879,
            "estimated_diameter_max": 430.566244241
        },
        "miles": {
            "estimated_diameter_min": 0.1196481415,
            "estimated_diameter_max": 0.2675413778
        },
        "feet": {
            "estimated_diameter_min": 631.7424027221,
            "estimated_diameter_max": 1412.6189567557
        }
    },
    "is_potentially_hazardous_asteroid": false,
    "close_approach_data": [
        {
            "close_approach_date": "1988-08-11",
            "close_approach_date_full": "1988-Aug-11 23:58",
            "epoch_date_close_approach": 587347080000,
            "relative_velocity": {
                "kilometers_per_second": "3.7416908909",
                "kilometers_per_hour": "13470.087207305",
                "miles_per_hour": "8369.7883538946"
            },
            "miss_distance": {
                "astronomical": "0.2209080813",
                "lunar": "85.9332436257",
                "kilometers": "33047378.428266831",
                "miles": "20534688.7491550278"
            },
            "orbiting_body": "Earth"
        },
        {
            "close_approach_date": "2007-08-10",
            "close_approach_date_full": "2007-Aug-10 21:31",
            "epoch_date_close_approach": 1186781460000,
            "relative_velocity": {
                "kilometers_per_second": "3.6617156053",
                "kilometers_per_hour": "13182.1761790679",
                "miles_per_hour": "8190.891637488"
            },
            "miss_distance": {
                "astronomical": "0.2081504052",
                "lunar": "80.9705076228",
                "kilometers": "31138857.257556924",
                "miles": "19348788.6845925912"
            },
            "orbiting_body": "Earth"
        },
        {
            "close_approach_date": "2026-08-08",
            "close_approach_date_full": "2026-Aug-08 16:45",
            "epoch_date_close_approach": 1786207500000,
            "relative_velocity": {
                "kilometers_per_second": "3.7890116011",
                "kilometers_per_hour": "13640.4417637975",
                "miles_per_hour": "8475.6400503996"
            },
            "miss_distance": {
                "astronomical": "0.2350366598",
                "lunar": "91.4292606622",
                "kilometers": "35160983.677994626",
                "miles": "21848022.1512567988"
            },
            "orbiting_body": "Earth"
        }
    ],
    "orbital_data": {
        "orbit_id": "21",
        "orbit_determination_date": "2017-04-06 09:06:11",
        "first_observation_date": "2007-08-16",
        "last_observation_date": "2007-10-29",
        "data_arc_in_days": 74,
        "observations_used": 87,
        "orbit_uncertainty": "5",
        "minimum_orbit_intersection": ".20957",
        "jupiter_tisserand_invariant": "3.568",
        "epoch_osculation": "2459000.5",
        "eccentricity": ".4344954449040644",
        "semi_major_axis": "2.157337942349552",
        "inclination": "4.356214534372476",
        "ascending_node_longitude": "298.5396029286936",
        "orbital_period": "1157.379270216079",
        "perihelion_distance": "1.219984433279965",
        "perihelion_argument": "23.26532177430263",
        "aphelion_distance": "3.094691451419139",
        "perihelion_time": "2458959.062866275651",
        "mean_anomaly": "12.8889194101262",
        "mean_motion": ".3110475617321098",
        "equinox": "J2000",
        "orbit_class": {
            "orbit_class_type": "AMO",
            "orbit_class_description": "Near-Earth asteroid orbits similar to that of 1221 Amor",
            "orbit_class_range": "1.017 AU < q (perihelion) < 1.3 AU"
        }
    },
    "is_sentry_object": false
}